{"type":"FeatureCollection","features":[
{"type":"Feature","geometry":{"type":"Point","coordinates":[37.578354495,55.767196407]},"properties":{"id":"src-1","object_type":"source"}},
{"type":"Feature","geometry":{"type":"Point","coordinates":[37.581448521,55.766313814]},"properties":{"id":"hc-1","object_type":"heat_chamber","diameter":100,"upstream_object_id":"hn-6"}},
{"type":"Feature","geometry":{"type":"Point","coordinates":[37.574402996,55.765726518]},"properties":{"id":"hc-2","object_type":"heat_chamber","diameter":80,"upstream_object_id":"hn-7"}},
{"type":"Feature","geometry":{"type":"Point","coordinates":[37.582659314,55.765957758]},"properties":{"id":"hc-3","object_type":"heat_chamber","diameter":80,"upstream_object_id":"hn-8"}},
{"type":"Feature","geometry":{"type":"Point","coordinates":[37.571655695,55.76476133]},"properties":{"id":"hc-4","object_type":"heat_chamber","diameter":80,"upstream_object_id":"hn-13"}},
{"type":"Feature","geometry":{"type":"Point","coordinates":[37.585470652,55.765146391]},"properties":{"id":"hc-5","object_type":"heat_chamber","diameter":80,"upstream_object_id":"hn-14"}},
{"type":"Feature","geometry":{"type":"Point","coordinates":[37.577946796,55.771657464]},"properties":{"id":"hc-6","object_type":"heat_chamber","diameter":80,"upstream_object_id":"hn-15"}},
{"type":"Feature","geometry":{"type":"Point","coordinates":[37.57639441,55.771637409]},"properties":{"id":"hc-7","object_type":"heat_chamber","diameter":65,"upstream_object_id":"hn-17"}},
{"type":"Feature","geometry":{"type":"Point","coordinates":[37.586969545,55.764740091]},"properties":{"id":"hc-8","object_type":"heat_chamber","diameter":50,"upstream_object_id":"hn-20"}},
{"type":"Feature","geometry":{"type":"Point","coordinates":[37.570191344,55.76421858]},"properties":{"id":"hc-9","object_type":"heat_chamber","diameter":65,"upstream_object_id":"hn-21"}},
{"type":"Feature","geometry":{"type":"Point","coordinates":[37.570715237,55.765604922]},"properties":{"id":"hc-10","object_type":"heat_chamber","diameter":50,"upstream_object_id":"hn-22"}},
{"type":"Feature","geometry":{"type":"LineString","coordinates":[[37.578354495,55.767196407],[37.577073356,55.766695387]]},"properties":{"id":"hn-1","object_type":"heat_network","diameter":80,"flow_tph":12.911,"upstream_object_id":"src-1"}},
{"type":"Feature","geometry":{"type":"LineString","coordinates":[[37.578354495,55.767196407],[37.578303463,55.768088726]]},"properties":{"id":"hn-2","object_type":"heat_network","diameter":125,"flow_tph":22.486,"upstream_object_id":"src-1"}},
{"type":"Feature","geometry":{"type":"LineString","coordinates":[[37.578354495,55.767196407],[37.579813063,55.766760292]]},"properties":{"id":"hn-3","object_type":"heat_network","diameter":100,"flow_tph":14.863,"upstream_object_id":"src-1"}},
{"type":"Feature","geometry":{"type":"LineString","coordinates":[[37.577073356,55.766695387],[37.575933788,55.766343626]]},"properties":{"id":"hn-4","object_type":"heat_network","diameter":80,"flow_tph":11.589,"upstream_object_id":"hn-1"}},
{"type":"Feature","geometry":{"type":"LineString","coordinates":[[37.578303463,55.768088726],[37.578135113,55.76905722]]},"properties":{"id":"hn-5","object_type":"heat_network","diameter":100,"flow_tph":21.086,"upstream_object_id":"hn-2"}},
{"type":"Feature","geometry":{"type":"LineString","coordinates":[[37.579813063,55.766760292],[37.581448521,55.766313814]]},"properties":{"id":"hn-6","object_type":"heat_network","diameter":100,"flow_tph":14.115,"upstream_object_id":"hn-3"}},
{"type":"Feature","geometry":{"type":"LineString","coordinates":[[37.575933788,55.766343626],[37.574402996,55.765726518]]},"properties":{"id":"hn-7","object_type":"heat_network","diameter":80,"flow_tph":10.533,"upstream_object_id":"hn-4"}},
{"type":"Feature","geometry":{"type":"LineString","coordinates":[[37.581448521,55.766313814],[37.582659314,55.765957758]]},"properties":{"id":"hn-8","object_type":"heat_network","diameter":80,"flow_tph":12.626,"upstream_object_id":"hc-1"}},
{"type":"Feature","geometry":{"type":"LineString","coordinates":[[37.578135113,55.76905722],[37.578069073,55.769979933]]},"properties":{"id":"hn-9","object_type":"heat_network","diameter":100,"flow_tph":19.376,"upstream_object_id":"hn-5"}},
{"type":"Feature","geometry":{"type":"LineString","coordinates":[[37.574402996,55.765726518],[37.573202694,55.765291065]]},"properties":{"id":"hn-10","object_type":"heat_network","diameter":80,"flow_tph":9.949,"upstream_object_id":"hc-2"}},
{"type":"Feature","geometry":{"type":"LineString","coordinates":[[37.582659314,55.765957758],[37.583938637,55.765601399]]},"properties":{"id":"hn-11","object_type":"heat_network","diameter":80,"flow_tph":11.641,"upstream_object_id":"hc-3"}},
{"type":"Feature","geometry":{"type":"LineString","coordinates":[[37.578069073,55.769979933],[37.578058557,55.770898042]]},"properties":{"id":"hn-12","object_type":"heat_network","diameter":80,"flow_tph":12.873,"upstream_object_id":"hn-9"}},
{"type":"Feature","geometry":{"type":"LineString","coordinates":[[37.573202694,55.765291065],[37.571655695,55.76476133]]},"properties":{"id":"hn-13","object_type":"heat_network","diameter":80,"flow_tph":8.604,"upstream_object_id":"hn-10"}},
{"type":"Feature","geometry":{"type":"LineString","coordinates":[[37.583938637,55.765601399],[37.585470652,55.765146391]]},"properties":{"id":"hn-14","object_type":"heat_network","diameter":80,"flow_tph":9.181,"upstream_object_id":"hn-11"}},
{"type":"Feature","geometry":{"type":"LineString","coordinates":[[37.578058557,55.770898042],[37.577946796,55.771657464]]},"properties":{"id":"hn-15","object_type":"heat_network","diameter":80,"flow_tph":11.885,"upstream_object_id":"hn-12"}},
{"type":"Feature","geometry":{"type":"LineString","coordinates":[[37.577946796,55.771657464],[37.577881593,55.772496963]]},"properties":{"id":"hn-16","object_type":"heat_network","diameter":65,"flow_tph":4.52,"upstream_object_id":"hc-6"}},
{"type":"Feature","geometry":{"type":"LineString","coordinates":[[37.577946796,55.771657464],[37.57639441,55.771637409]]},"properties":{"id":"hn-17","object_type":"heat_network","diameter":65,"flow_tph":3.691,"upstream_object_id":"hc-6"}},
{"type":"Feature","geometry":{"type":"LineString","coordinates":[[37.585470652,55.765146391],[37.584731071,55.7643489]]},"properties":{"id":"hn-18","object_type":"heat_network","diameter":65,"flow_tph":4.466,"upstream_object_id":"hc-5"}},
{"type":"Feature","geometry":{"type":"LineString","coordinates":[[37.577946796,55.771657464],[37.579516026,55.771705267]]},"properties":{"id":"hn-19","object_type":"heat_network","diameter":50,"flow_tph":1.512,"upstream_object_id":"hc-6"}},
{"type":"Feature","geometry":{"type":"LineString","coordinates":[[37.585470652,55.765146391],[37.586969545,55.764740091]]},"properties":{"id":"hn-20","object_type":"heat_network","diameter":50,"flow_tph":3.209,"upstream_object_id":"hc-5"}},
{"type":"Feature","geometry":{"type":"LineString","coordinates":[[37.571655695,55.76476133],[37.570191344,55.76421858]]},"properties":{"id":"hn-21","object_type":"heat_network","diameter":65,"flow_tph":3.966,"upstream_object_id":"hc-4"}},
{"type":"Feature","geometry":{"type":"LineString","coordinates":[[37.571655695,55.76476133],[37.570715237,55.765604922]]},"properties":{"id":"hn-22","object_type":"heat_network","diameter":50,"flow_tph":3.221,"upstream_object_id":"hc-4"}},
{"type":"Feature","geometry":{"type":"LineString","coordinates":[[37.577881593,55.772496963],[37.577757628,55.773340021]]},"properties":{"id":"hn-23","object_type":"heat_network","diameter":50,"flow_tph":2.902,"upstream_object_id":"hn-16"}},
{"type":"Feature","geometry":{"type":"LineString","coordinates":[[37.586969545,55.764740091],[37.588290407,55.764341797]]},"properties":{"id":"hn-24","object_type":"heat_network","diameter":50,"flow_tph":2.024,"upstream_object_id":"hc-8"}},
{"type":"Feature","geometry":{"type":"LineString","coordinates":[[37.584731071,55.7643489],[37.584011971,55.763582135]]},"properties":{"id":"hn-25","object_type":"heat_network","diameter":50,"flow_tph":2.226,"upstream_object_id":"hn-18"}},
{"type":"Feature","geometry":{"type":"LineString","coordinates":[[37.57639441,55.771637409],[37.574657819,55.771602305]]},"properties":{"id":"hn-26","object_type":"heat_network","diameter":50,"flow_tph":1.358,"upstream_object_id":"hc-7"}},
{"type":"Feature","geometry":{"type":"LineString","coordinates":[[37.579516026,55.771705267],[37.581303658,55.77179814]]},"properties":{"id":"hn-27","object_type":"heat_network","diameter":50,"flow_tph":0.745,"upstream_object_id":"hn-19"}},
{"type":"Feature","geometry":{"type":"LineString","coordinates":[[37.570715237,55.765604922],[37.569702247,55.766460589]]},"properties":{"id":"hn-28","object_type":"heat_network","diameter":50,"flow_tph":1.338,"upstream_object_id":"hc-10"}},
{"type":"Feature","geometry":{"type":"LineString","coordinates":[[37.570191344,55.76421858],[37.568664073,55.763639208]]},"properties":{"id":"hn-29","object_type":"heat_network","diameter":50,"flow_tph":2.389,"upstream_object_id":"hc-9"}},
{"type":"Feature","geometry":{"type":"LineString","coordinates":[[37.584011971,55.763582135],[37.583428271,55.76291442]]},"properties":{"id":"hn-30","object_type":"heat_network","diameter":50,"flow_tph":1.156,"upstream_object_id":"hn-25"}},
{"type":"Feature","geometry":{"type":"Polygon","coordinates":[[[37.585583664,55.767181965],[37.586380085,55.768262062],[37.584726898,55.768649461],[37.583930515,55.767569353],[37.585583664,55.767181965]]]},"properties":{"id":"oe-1","object_type":"oks_existing"}},
{"type":"Feature","geometry":{"type":"Polygon","coordinates":[[[37.585912128,55.772991174],[37.584574922,55.773833676],[37.582795931,55.772936526],[37.584133144,55.772094043],[37.585912128,55.772991174]]]},"properties":{"id":"oe-2","object_type":"oks_existing"}},
{"type":"Feature","geometry":{"type":"Polygon","coordinates":[[[37.570900866,55.768999103],[37.571640825,55.770127378],[37.571193348,55.770220637],[37.5704534,55.769092359],[37.570900866,55.768999103]]]},"properties":{"id":"oe-3","object_type":"oks_existing"}},
{"type":"Feature","geometry":{"type":"Polygon","coordinates":[[[37.590079415,55.765081083],[37.59213915,55.765252278],[37.591954162,55.765959783],[37.589894391,55.765788586],[37.590079415,55.765081083]]]},"properties":{"id":"oe-4","object_type":"oks_existing"}},
{"type":"Feature","geometry":{"type":"Polygon","coordinates":[[[37.581853434,55.772329503],[37.581512103,55.77301109],[37.580944191,55.772920724],[37.581285531,55.772239139],[37.581853434,55.772329503]]]},"properties":{"id":"oe-5","object_type":"oks_existing"}},
{"type":"Feature","geometry":{"type":"Polygon","coordinates":[[[37.586002733,55.76578613],[37.585811239,55.76536122],[37.587117385,55.765174114],[37.587308893,55.765599022],[37.586002733,55.76578613]]]},"properties":{"id":"rs-1","object_type":"restriction","restriction_type":"park"}},
{"type":"Feature","geometry":{"type":"Polygon","coordinates":[[[37.577408922,55.773804269],[37.57728024,55.773577239],[37.579255276,55.773221551],[37.579383968,55.773448579],[37.577408922,55.773804269]]]},"properties":{"id":"rs-2","object_type":"restriction","restriction_type":"social_area"}},
{"type":"Feature","geometry":{"type":"Polygon","coordinates":[[[37.580041579,55.770212857],[37.57945673,55.77014759],[37.579864916,55.768985248],[37.580449748,55.769050512],[37.580041579,55.770212857]]]},"properties":{"id":"rs-3","object_type":"restriction","restriction_type":"prohibited_site"}},
{"type":"Feature","geometry":{"type":"Polygon","coordinates":[[[37.578976661,55.770716367],[37.578103797,55.769258133],[37.578405818,55.769200684],[37.579278691,55.770658916],[37.578976661,55.770716367]]]},"properties":{"id":"rs-4","object_type":"restriction","restriction_type":"road"}},
{"type":"Feature","geometry":{"type":"Polygon","coordinates":[[[37.583929001,55.769029613],[37.583318998,55.769355156],[37.581709129,55.768396486],[37.58231913,55.76807095],[37.583929001,55.769029613]]]},"properties":{"id":"rs-5","object_type":"restriction","restriction_type":"park"}},
{"type":"Feature","geometry":{"type":"Polygon","coordinates":[[[37.573429792,55.766826184],[37.575047119,55.766974872],[37.574691617,55.768203932],[37.57307424,55.768055239],[37.573429792,55.766826184]]]},"properties":{"id":"rs-6","object_type":"restriction","restriction_type":"park"}},
{"type":"Feature","geometry":{"type":"Polygon","coordinates":[[[37.57460269,55.775141363],[37.576007554,55.775258281],[37.5758268,55.775948308],[37.574421911,55.775831388],[37.57460269,55.775141363]]]},"properties":{"id":"rs-7","object_type":"restriction","restriction_type":"park"}},
{"type":"Feature","geometry":{"type":"Polygon","coordinates":[[[37.572426404,55.765381934],[37.573044181,55.766356946],[37.572132965,55.76654045],[37.571515208,55.765565433],[37.572426404,55.765381934]]]},"properties":{"id":"rs-8","object_type":"restriction","restriction_type":"social_area"}},
{"type":"Feature","geometry":{"type":"Polygon","coordinates":[[[37.577657561,55.765422661],[37.577376505,55.765665002],[37.575650865,55.765028861],[37.575931928,55.764786524],[37.577657561,55.765422661]]]},"properties":{"id":"rs-9","object_type":"restriction","restriction_type":"prohibited_site"}},
{"type":"Feature","geometry":{"type":"Polygon","coordinates":[[[37.576733761,55.769668777],[37.573075302,55.771266726],[37.572651982,55.770958738],[37.576310428,55.769360801],[37.576733761,55.769668777]]]},"properties":{"id":"rs-10","object_type":"restriction","restriction_type":"water"}},
{"type":"Feature","geometry":{"type":"Polygon","coordinates":[[[37.582390803,55.773886347],[37.583474019,55.774714803],[37.583027302,55.77490037],[37.58194409,55.77407191],[37.582390803,55.773886347]]]},"properties":{"id":"rs-11","object_type":"restriction","restriction_type":"water"}},
{"type":"Feature","geometry":{"type":"Polygon","coordinates":[[[37.57885728,55.759525094],[37.582857015,55.763169942],[37.582586002,55.763264492],[37.578586283,55.759619635],[37.57885728,55.759525094]]]},"properties":{"id":"rs-12","object_type":"restriction","restriction_type":"road"}},
{"type":"Feature","geometry":{"type":"Polygon","coordinates":[[[37.569466691,55.772909037],[37.569852192,55.777942777],[37.569533667,55.777950526],[37.569148208,55.772916785],[37.569466691,55.772909037]]]},"properties":{"id":"rs-13","object_type":"restriction","restriction_type":"road"}},
{"type":"Feature","geometry":{"type":"Polygon","coordinates":[[[37.577501112,55.776169975],[37.573386707,55.777816627],[37.573202128,55.777670115],[37.577316525,55.77602347],[37.577501112,55.776169975]]]},"properties":{"id":"rs-14","object_type":"restriction","restriction_type":"tram_tracks"}},
{"type":"Feature","geometry":{"type":"Polygon","coordinates":[[[37.569859846,55.760140566],[37.562960453,55.763507474],[37.562751898,55.763371601],[37.569651284,55.760004705],[37.569859846,55.760140566]]]},"properties":{"id":"rs-15","object_type":"restriction","restriction_type":"tram_tracks"}},
{"type":"Feature","geometry":{"type":"Polygon","coordinates":[[[37.578870207,55.764698584],[37.580941331,55.766042083],[37.58070077,55.766159959],[37.578629648,55.764816455],[37.578870207,55.764698584]]]},"properties":{"id":"rs-16","object_type":"restriction","restriction_type":"tram_tracks"}},
{"type":"Feature","geometry":{"type":"LineString","coordinates":[[37.571837021,55.776383078],[37.577880894,55.773458287],[37.582279312,55.770949771]]},"properties":{"id":"rs-17","object_type":"restriction","restriction_type":"gas_pipeline"}},
{"type":"Feature","geometry":{"type":"LineString","coordinates":[[37.582091892,55.771508773],[37.577989108,55.771369956],[37.574050131,55.770664785]]},"properties":{"id":"rs-18","object_type":"restriction","restriction_type":"gas_pipeline"}},
{"type":"Feature","geometry":{"type":"LineString","coordinates":[[37.580624952,55.772605204],[37.580276747,55.769831736],[37.581000959,55.766855569]]},"properties":{"id":"rs-19","object_type":"restriction","restriction_type":"power_cable"}},
{"type":"Feature","geometry":{"type":"LineString","coordinates":[[37.585483446,55.766766386],[37.578239078,55.768459132],[37.57499095,55.769619899]]},"properties":{"id":"rs-20","object_type":"restriction","restriction_type":"power_cable"}},
{"type":"Feature","geometry":{"type":"Polygon","coordinates":[[[37.587286969,55.765938858],[37.587631324,55.766342625],[37.587175082,55.766466298],[37.586830731,55.766062529],[37.587286969,55.765938858]]]},"properties":{"id":"oks-1","object_type":"oks_future","flow_tph":38.855,"heat_load":0.971375}},
{"type":"Feature","geometry":{"type":"Point","coordinates":[37.58705885,55.766000693]},"properties":{"id":"cp-1","object_type":"oks_connection_point","oks_id":"oks-1"}},
{"type":"Feature","geometry":{"type":"Polygon","coordinates":[[[37.578799023,55.773899074],[37.578736639,55.774549731],[37.577789146,55.774520865],[37.577851545,55.77387021],[37.578799023,55.773899074]]]},"properties":{"id":"oks-2","object_type":"oks_future","flow_tph":38.349,"heat_load":0.958725}},
{"type":"Feature","geometry":{"type":"Point","coordinates":[37.578325284,55.773884643]},"properties":{"id":"cp-2","object_type":"oks_connection_point","oks_id":"oks-2"}},
{"type":"Feature","geometry":{"type":"Polygon","coordinates":[[[37.58171372,55.76975305],[37.5820571,55.770117982],[37.58136497,55.770324932],[37.581021596,55.769959997],[37.58171372,55.76975305]]]},"properties":{"id":"oks-3","object_type":"oks_future","flow_tph":12.696,"heat_load":0.3174}},
{"type":"Feature","geometry":{"type":"Point","coordinates":[37.581367659,55.769856524]},"properties":{"id":"cp-3","object_type":"oks_connection_point","oks_id":"oks-3"}}
]}
