{"type":"FeatureCollection","features":[{"type":"Feature","geometry":{"type":"Point","coordinates":[44.0421885,56.3170083]},"properties":{"generator:source":"gas","power":"plant","_source":"real","_class":"heat_source","_osm_id":"node/13945959900","_district":"Нижегородский район"}},{"type":"Feature","geometry":{"type":"Point","coordinates":[43.830406902434135,56.230925850000006]},"properties":{"building:levels":"2","building:part":"yes","industrial":"heating_station","roof:shape":"flat","type":"multipolygon","_source":"real","_class":"heat_source","_osm_id":"relation/2298479","_district":"Автозаводский район"}},{"type":"Feature","geometry":{"type":"Point","coordinates":[43.94697134477771,56.278286550000004]},"properties":{"industrial":"heating_station","landuse":"industrial","plant:output:hot_water":"yes","power":"plant","type":"multipolygon","_source":"real","_class":"heat_source","_osm_id":"relation/2593700","_district":"Ленинский район"}},{"type":"Feature","geometry":{"type":"Point","coordinates":[43.93987747684828,56.31760355]},"properties":{"industrial":"heating_station","landuse":"industrial","plant:output:hot_water":"yes","power":"plant","type":"multipolygon","_source":"real","_class":"heat_source","_osm_id":"relation/2813523","_district":"Канавинский район"}},{"type":"Feature","geometry":{"type":"Point","coordinates":[43.988048042901845,56.30571115]},"properties":{"addr:housenumber":"11Б","addr:street":"улица Кулибина","building":"yes","building:architecture":"eclectic","building:levels":"1","power":"plant","type":"multipolygon","_source":"real","_class":"heat_source","_osm_id":"relation/4217625","_district":"Советский район"}},{"type":"Feature","geometry":{"type":"Point","coordinates":[43.92432988509969,56.34892285]},"properties":{"landuse":"industrial","name":"Котельная","type":"multipolygon","_source":"real","_class":"heat_source","_osm_id":"relation/5749670","_district":"Канавинский район"}},{"type":"Feature","geometry":{"type":"Point","coordinates":[43.891072925,56.3529417]},"properties":{"branch":"Нижегородский филиал","landuse":"industrial","name":"Сормовская ТЭЦ","name:en":"Sormovo Power Plant","operator":"ПАО «Т Плюс»","plant:method":"combustion","plant:output:electricity":"350 MW","plant:output:heat":"646 Gcal/h","plant:source":"gas;oil","power":"plant","start_date":"1974","type":"multipolygon","wikidata":"Q4429056","_source":"real","_class":"heat_source","_osm_id":"relation/6613324","_district":"Сормовский район"}},{"type":"Feature","geometry":{"type":"Point","coordinates":[43.951490374194655,56.33854475]},"properties":{"barrier":"fence","landuse":"industrial","plant:output:hot_water":"yes","power":"plant","type":"multipolygon","_source":"real","_class":"heat_source","_osm_id":"relation/7661698","_district":"Канавинский район"}},{"type":"Feature","geometry":{"type":"Point","coordinates":[43.89133053476943,56.3525876]},"properties":{"man_made":"works","name":"Котельный цех","type":"multipolygon","_source":"real","_class":"heat_source","_osm_id":"relation/7812030","_district":"Сормовский район"}},{"type":"Feature","geometry":{"type":"Point","coordinates":[43.89565062361426,56.24341615]},"properties":{"alt_name":"ТЭЦ ГАЗ","landuse":"industrial","name":"Автозаводская ТЭЦ","name:en":"Avtozavodskaya CHPP","operator":"ООО «Автозаводская ТЭЦ»","plant:method":"combustion","plant:output:electricity":"530 MW","plant:output:heat":"1783 MW","plant:source":"gas;oil","power":"plant","start_date":"1931","type":"multipolygon","wikidata":"Q4056236","_source":"real","_class":"heat_source","_osm_id":"relation/7839125","_district":"Автозаводский район"}},{"type":"Feature","geometry":{"type":"Point","coordinates":[43.91533411324786,56.279325299999996]},"properties":{"branch":"РТС Ленинский","industrial":"heating_station","landuse":"industrial","name":"Ипподром","operator":"АО «Теплоэнерго»","plant:method":"combustion","plant:output:hot_water":"yes","plant:source":"gas","power":"plant","type":"multipolygon","_source":"real","_class":"heat_source","_osm_id":"relation/8158155","_district":"Ленинский район"}},{"type":"Feature","geometry":{"type":"Point","coordinates":[43.952685117387134,56.3276164]},"properties":{"branch":"РТС Канавинский","industrial":"heating_station","landuse":"industrial","name":"Котельная","operator":"АО «Теплоэнерго»","plant:output:electricity":"no","plant:output:hot_water":"yes","plant:source":"gas","power":"plant","type":"multipolygon","_source":"real","_class":"heat_source","_osm_id":"relation/8188704","_district":"Канавинский район"}},{"type":"Feature","geometry":{"type":"Point","coordinates":[43.94484126642857,56.3265243]},"properties":{"industrial":"heating_station","landuse":"industrial","power":"plant","type":"multipolygon","_source":"real","_class":"heat_source","_osm_id":"relation/8350281","_district":"Канавинский район"}},{"type":"Feature","geometry":{"type":"Point","coordinates":[43.85574552435898,56.3504836]},"properties":{"industrial":"heating_station","landuse":"industrial","name":"Котельные","type":"multipolygon","_source":"real","_class":"heat_source","_osm_id":"relation/9647228","_district":"Сормовский район"}},{"type":"Feature","geometry":{"type":"Point","coordinates":[43.85495234932429,56.350195299999996]},"properties":{"addr:housenumber":"2","addr:street":"улица Пугачёва","building":"service","building:levels":"1","plant:output:hot_water":"yes","plant:source":"gas","power":"plant","type":"multipolygon","_source":"real","_class":"heat_source","_osm_id":"relation/9647231","_district":"Сормовский район"}},{"type":"Feature","geometry":{"type":"Point","coordinates":[43.856602766250816,56.35040135]},"properties":{"addr:housenumber":"1","addr:street":"улица Пугачёва","building":"service","building:levels":"2","plant:output:hot_water":"yes","plant:source":"gas","power":"plant","type":"multipolygon","_source":"real","_class":"heat_source","_osm_id":"relation/9647234","_district":"Сормовский район"}},{"type":"Feature","geometry":{"type":"Point","coordinates":[43.80918935,56.3640514]},"properties":{"landuse":"industrial","power":"plant","_source":"real","_class":"heat_source","_osm_id":"way/105204011","_district":"Сормовский район"}},{"type":"Feature","geometry":{"type":"Point","coordinates":[43.889805349999996,56.3526531]},"properties":{"building":"industrial","name":"Пиковая котельная","plant:method":"combustion","plant:output:hot_water":"360 Gcal/h","plant:source":"gas;oil","power":"plant","_source":"real","_class":"heat_source","_osm_id":"way/1084220586","_district":"Сормовский район"}},{"type":"Feature","geometry":{"type":"Point","coordinates":[44.04440476678082,56.32018395]},"properties":{"landuse":"industrial","power":"plant","_source":"real","_class":"heat_source","_osm_id":"way/1290920178","_district":"Нижегородский район"}},{"type":"Feature","geometry":{"type":"Point","coordinates":[43.80778241007977,56.36384065]},"properties":{"landuse":"industrial","power":"plant","_source":"real","_class":"heat_source","_osm_id":"way/1376385897","_district":"Сормовский район"}},{"type":"Feature","geometry":{"type":"Point","coordinates":[43.80851147035729,56.364575450000004]},"properties":{"landuse":"industrial","power":"plant","_source":"real","_class":"heat_source","_osm_id":"way/1376385908","_district":"Сормовский район"}},{"type":"Feature","geometry":{"type":"Point","coordinates":[43.992202538483,56.322833]},"properties":{"industrial":"heating_station","landuse":"industrial","plant:output:hot_water":"yes","power":"plant","_source":"real","_class":"heat_source","_osm_id":"way/146725658","_district":"Нижегородский район"}},{"type":"Feature","geometry":{"type":"Point","coordinates":[43.98836425083381,56.32726495]},"properties":{"building":"yes","building:colour":"maroon","building:levels":"2","power":"plant","roof:colour":"maroon","_source":"real","_class":"heat_source","_osm_id":"way/147054164","_district":"Нижегородский район"}},{"type":"Feature","geometry":{"type":"Point","coordinates":[43.988380672519035,56.324124850000004]},"properties":{"industrial":"heating_station","landuse":"industrial","plant:output:hot_water":"yes","power":"plant","_source":"real","_class":"heat_source","_osm_id":"way/147129160","_district":"Нижегородский район"}},{"type":"Feature","geometry":{"type":"Point","coordinates":[43.98399004284627,56.3213403]},"properties":{"addr:housenumber":"9Д","addr:street":"переулок Гоголя","building":"yes","plant:output:hot_water":"yes","power":"plant","_source":"real","_class":"heat_source","_osm_id":"way/147488114","_district":"Нижегородский район"}},{"type":"Feature","geometry":{"type":"Point","coordinates":[43.9882019,56.3126026]},"properties":{"addr:city":"Нижний Новгород","addr:housenumber":"65Д","addr:postcode":"603000","addr:street":"улица Максима Горького","building":"yes","level":"1","power":"plant","_source":"real","_class":"heat_source","_osm_id":"way/148276486","_district":"Нижегородский район"}},{"type":"Feature","geometry":{"type":"Point","coordinates":[43.989603772613464,56.314399699999996]},"properties":{"industrial":"heating_station","landuse":"industrial","power":"plant","_source":"real","_class":"heat_source","_osm_id":"way/148276549","_district":"Нижегородский район"}},{"type":"Feature","geometry":{"type":"Point","coordinates":[43.980088098098655,56.314788750000005]},"properties":{"building":"yes","building:architecture":"contemporary","plant:source":"gas","power":"plant","_source":"real","_class":"heat_source","_osm_id":"way/149028629","_district":"Нижегородский район"}},{"type":"Feature","geometry":{"type":"Point","coordinates":[44.013573157663046,56.3162739]},"properties":{"addr:housenumber":"102А","addr:street":"улица Белинского","building":"yes","power":"plant","_source":"real","_class":"heat_source","_osm_id":"way/150800805","_district":"Нижегородский район"}},{"type":"Feature","geometry":{"type":"Point","coordinates":[44.00718605090283,56.329577650000004]},"properties":{"addr:housenumber":"3А","addr:place":"Кремль","addr:postcode":"603082","building":"yes","building:architecture":"eclectic","building:levels":"3","landuse":"industrial","plant:output:steam":"yes","power":"plant","_source":"real","_class":"heat_source","_osm_id":"way/150852654","_district":"Нижегородский район"}},{"type":"Feature","geometry":{"type":"Point","coordinates":[44.018870258524466,56.31594425]},"properties":{"building":"industrial","building:levels":"2","plant:method":"combustion","plant:output:hot_water":"yes","plant:source":"gas","power":"plant","_source":"real","_class":"heat_source","_osm_id":"way/151905997","_district":"Советский район"}},{"type":"Feature","geometry":{"type":"Point","coordinates":[43.96560581721053,56.2351324]},"properties":{"power":"plant","_source":"real","_class":"heat_source","_osm_id":"way/1530196327","_district":"Приокский район"}},{"type":"Feature","geometry":{"type":"Point","coordinates":[43.98856586812298,56.297921349999996]},"properties":{"building":"yes","building:levels":"2","plant:output:hot_water":"yes","plant:output:steam":"yes","power":"plant","_source":"real","_class":"heat_source","_osm_id":"way/153599504","_district":"Советский район"}},{"type":"Feature","geometry":{"type":"Point","coordinates":[44.1757974,56.14763465]},"properties":{"building":"service","name":"Котельная","_source":"real","_class":"heat_source","_osm_id":"way/154529020","_district":"вне районов"}},{"type":"Feature","geometry":{"type":"Point","coordinates":[44.191315895021134,56.152931949999996]},"properties":{"building":"yes","name":"Котельная","_source":"real","_class":"heat_source","_osm_id":"way/154552170","_district":"вне районов"}},{"type":"Feature","geometry":{"type":"Point","coordinates":[43.995892632807184,56.30257095]},"properties":{"industrial":"heating_station","landuse":"industrial","name":"Нагорная теплоцентраль","plant:output:hot_water":"yes","plant:source":"gas","power":"plant","_source":"real","_class":"heat_source","_osm_id":"way/155408821","_district":"Советский район"}},{"type":"Feature","geometry":{"type":"Point","coordinates":[44.07158405000001,56.307538050000005]},"properties":{"building":"industrial","building:levels":"2","name":"Котельная","plant:output:hot_water":"yes","plant:source":"gas","power":"plant","_source":"real","_class":"heat_source","_osm_id":"way/157253080","_district":"Нижегородский район"}},{"type":"Feature","geometry":{"type":"Point","coordinates":[44.032251855411346,56.26406985]},"properties":{"barrier":"fence","power":"plant","_source":"real","_class":"heat_source","_osm_id":"way/157851413","_district":"Советский район"}},{"type":"Feature","geometry":{"type":"Point","coordinates":[44.020150997423386,56.308452349999996]},"properties":{"addr:city":"Нижний Новгород","addr:housenumber":"63","addr:street":"улица Ванеева","building":"industrial","official_name":"ОАО «Теплоэнерго» • РТС «Нижегородский» • котельная улица Ванеева, 63","power":"plant","_source":"real","_class":"heat_source","_osm_id":"way/158743865","_district":"Советский район"}},{"type":"Feature","geometry":{"type":"Point","coordinates":[43.9881656803651,56.262792399999995]},"properties":{"addr:housenumber":"24","addr:street":"улица Радистов","building":"yes","power":"plant","_source":"real","_class":"heat_source","_osm_id":"way/160659964","_district":"Приокский район"}},{"type":"Feature","geometry":{"type":"Point","coordinates":[44.03073355595827,56.287581]},"properties":{"building:levels":"2","landuse":"industrial","power":"plant","_source":"real","_class":"heat_source","_osm_id":"way/161202176","_district":"Советский район"}},{"type":"Feature","geometry":{"type":"Point","coordinates":[44.029084749999996,56.3092313]},"properties":{"addr:housenumber":"7Б","addr:street":"улица Бориса Панина","building":"service","landuse":"industrial","power":"plant","_source":"real","_class":"heat_source","_osm_id":"way/161386703","_district":"Советский район"}},{"type":"Feature","geometry":{"type":"Point","coordinates":[43.989802999999995,56.270648300000005]},"properties":{"addr:housenumber":"3Б литК","addr:street":"Анкудиновское шоссе","building":"yes","power":"plant","_source":"real","_class":"heat_source","_osm_id":"way/162010412","_district":"Приокский район"}},{"type":"Feature","geometry":{"type":"Point","coordinates":[44.03680868464271,56.3191164]},"properties":{"addr:housenumber":"13","addr:street":"улица Тургенева","building":"yes","power":"plant","_source":"real","_class":"heat_source","_osm_id":"way/162038339","_district":"Нижегородский район"}},{"type":"Feature","geometry":{"type":"Point","coordinates":[43.80546156475317,56.20046735]},"properties":{"addr:housenumber":"32А","addr:place":"посёлок Мостоотряд","addr:postcode":"603069","building":"service","building:levels":"1","landuse":"industrial","power":"plant","_source":"real","_class":"heat_source","_osm_id":"way/173504548","_district":"Автозаводский район"}},{"type":"Feature","geometry":{"type":"Point","coordinates":[44.0003424,56.266084649999996]},"properties":{"building":"yes","building:levels":"1","name":"Котельная","power":"plant","_source":"real","_class":"heat_source","_osm_id":"way/173656998","_district":"Приокский район"}},{"type":"Feature","geometry":{"type":"Point","coordinates":[43.98626372176997,56.2748873]},"properties":{"industrial":"heating_station","landuse":"industrial","power":"plant","_source":"real","_class":"heat_source","_osm_id":"way/173987841","_district":"Приокский район"}},{"type":"Feature","geometry":{"type":"Point","coordinates":[43.937999277392336,56.323265649999996]},"properties":{"building":"yes","plant:method":"combustion","plant:output:hot_water":"yes","plant:source":"gas","power":"plant","_source":"real","_class":"heat_source","_osm_id":"way/180443814","_district":"Канавинский район"}},{"type":"Feature","geometry":{"type":"Point","coordinates":[43.9371557864052,56.3226247]},"properties":{"industrial":"heating_station","landuse":"industrial","plant:output:hot_water":"yes","plant:source":"gas","power":"plant","_source":"real","_class":"heat_source","_osm_id":"way/180443874","_district":"Канавинский район"}},{"type":"Feature","geometry":{"type":"Point","coordinates":[43.95198384953757,56.310916]},"properties":{"addr:housenumber":"100 к23","addr:street":"Интернациональная улица","industrial":"heating_station","landuse":"industrial","plant:output:hot_water":"yes","power":"plant","_source":"real","_class":"heat_source","_osm_id":"way/202438834","_district":"Канавинский район"}},{"type":"Feature","geometry":{"type":"Point","coordinates":[43.94816201435538,56.31454265]},"properties":{"building:levels":"2","building:part":"yes","landuse":"industrial","operator":"Нормаль","power":"plant","_source":"real","_class":"heat_source","_osm_id":"way/202438890","_district":"Канавинский район"}},{"type":"Feature","geometry":{"type":"Point","coordinates":[43.80391440420269,56.3450452]},"properties":{"barrier":"wall","landuse":"industrial","power":"plant","_source":"real","_class":"heat_source","_osm_id":"way/240226760","_district":"Сормовский район"}},{"type":"Feature","geometry":{"type":"Point","coordinates":[44.19715115134855,56.1633877]},"properties":{"building":"yes","power":"plant","_source":"real","_class":"heat_source","_osm_id":"way/293878456","_district":"вне районов"}},{"type":"Feature","geometry":{"type":"Point","coordinates":[44.196621508216225,56.16353225]},"properties":{"addr:housenumber":"4","addr:street":"Коллективный переулок","building":"yes","landuse":"industrial","power":"plant","_source":"real","_class":"heat_source","_osm_id":"way/293878468","_district":"вне районов"}},{"type":"Feature","geometry":{"type":"Point","coordinates":[44.19602197291075,56.163729000000004]},"properties":{"addr:housenumber":"6","addr:street":"Коллективный переулок","building":"yes","landuse":"industrial","power":"plant","_source":"real","_class":"heat_source","_osm_id":"way/293878481","_district":"вне районов"}},{"type":"Feature","geometry":{"type":"Point","coordinates":[44.01742574318267,56.21342525]},"properties":{"addr:street":"Весенняя улица","building":"industrial","building:levels":"1","name":"Котельная","_source":"real","_class":"heat_source","_osm_id":"way/376196183","_district":"вне районов"}},{"type":"Feature","geometry":{"type":"Point","coordinates":[44.0848699704554,56.16811725]},"properties":{"addr:housenumber":"12","addr:place":"Агродом","landuse":"industrial","power":"plant","_source":"real","_class":"heat_source","_osm_id":"way/389785061","_district":"Нижегородский район"}},{"type":"Feature","geometry":{"type":"Point","coordinates":[43.86488084705258,56.29288055]},"properties":{"addr:housenumber":"31А","addr:street":"Путейская улица","building":"yes","building:levels":"2","landuse":"industrial","power":"plant","_source":"real","_class":"heat_source","_osm_id":"way/42315335","_district":"Канавинский район"}},{"type":"Feature","geometry":{"type":"Point","coordinates":[44.1269353,56.16891705]},"properties":{"building":"yes","plant:output:steam":"yes","plant:source":"gas","power":"plant","_source":"real","_class":"heat_source","_osm_id":"way/448673935","_district":"Нижегородский район"}},{"type":"Feature","geometry":{"type":"Point","coordinates":[44.08195705,56.281388750000005]},"properties":{"landuse":"industrial","level":"1","power":"plant","_source":"real","_class":"heat_source","_osm_id":"way/519105246","_district":"вне районов"}},{"type":"Feature","geometry":{"type":"Point","coordinates":[44.04434116478295,56.319953850000005]},"properties":{"addr:housenumber":"2А","addr:street":"Радужная улица","building":"service","building:colour":"white","landuse":"industrial","plant:output:hot_water":"yes","power":"plant","_source":"real","_class":"heat_source","_osm_id":"way/53095840","_district":"Нижегородский район"}},{"type":"Feature","geometry":{"type":"Point","coordinates":[43.866959108333326,56.344831799999994]},"properties":{"addr:housenumber":"1В","addr:street":"улица Энгельса","landuse":"industrial","power":"plant","_source":"real","_class":"heat_source","_osm_id":"way/54608122","_district":"Сормовский район"}},{"type":"Feature","geometry":{"type":"Point","coordinates":[43.9217490790254,56.28005935]},"properties":{"addr:housenumber":"49Б","addr:street":"проспект Ленина","building":"yes","landuse":"industrial","power":"plant","_source":"real","_class":"heat_source","_osm_id":"way/56043231","_district":"Ленинский район"}},{"type":"Feature","geometry":{"type":"Point","coordinates":[43.849376905783856,56.229063499999995]},"properties":{"building":"service","building:levels":"1","name":"Котельная","plant:output:electricity":"no","plant:output:hot_water":"yes","plant:source":"gas","power":"plant","_source":"real","_class":"heat_source","_osm_id":"way/566463714","_district":"Автозаводский район"}},{"type":"Feature","geometry":{"type":"Point","coordinates":[43.935890793435306,56.31409205]},"properties":{"addr:housenumber":"18В","addr:street":"улица Октябрьской Революции","building":"service","building:levels":"2","plant:source":"gas","power":"plant","_source":"real","_class":"heat_source","_osm_id":"way/664078325","_district":"Канавинский район"}},{"type":"Feature","geometry":{"type":"Point","coordinates":[44.05114237065901,56.2703702]},"properties":{"addr:housenumber":"71","addr:street":"Вечерняя улица","building":"industrial","industrial":"heating_station","start_date":"2018","_source":"real","_class":"heat_source","_osm_id":"way/682774688","_district":"Советский район"}},{"type":"Feature","geometry":{"type":"Point","coordinates":[44.076431850000006,56.1663443]},"properties":{"addr:housenumber":"7Г","addr:place":"Морёновская школа","landuse":"industrial","power":"plant","_source":"real","_class":"heat_source","_osm_id":"way/712973105","_district":"Нижегородский район"}},{"type":"Feature","geometry":{"type":"Point","coordinates":[43.8235174,56.20883595]},"properties":{"addr:city":"Нижний Новгород","addr:housenumber":"31А","addr:street":"Малоэтажная улица","building":"service","landuse":"industrial","name":"Котельная №13","plant:method":"combustion","plant:output:electricity":"yes","plant:output:hot_water":"yes","plant:source":"gas","power":"plant","start_date":"2019","_source":"real","_class":"heat_source","_osm_id":"way/765981195","_district":"Автозаводский район"}},{"type":"Feature","geometry":{"type":"Point","coordinates":[43.941198738956075,56.3096336]},"properties":{"addr:housenumber":"15А","addr:street":"Вольская улица","building":"industrial","name":"Котельная","_source":"real","_class":"heat_source","_osm_id":"way/81159001","_district":"Канавинский район"}},{"type":"Feature","geometry":{"type":"Point","coordinates":[43.86099219414169,56.314620500000004]},"properties":{"barrier":"fence","branch":"РТС Заречный","fence_type":"chain_link","name":"Котельная","operator":"АО «Теплоэнерго»","plant:output:heat":"yes","plant:source":"gas","power":"plant","_source":"real","_class":"heat_source","_osm_id":"way/836129493","_district":"Московский район"}},{"type":"Feature","geometry":{"type":"Point","coordinates":[43.99068840600111,56.280593249999995]},"properties":{"addr:housenumber":"9А","addr:street":"Медицинская улица","building":"yes","plant:output:hot_water":"yes","plant:source":"gas","power":"plant","_source":"real","_class":"heat_source","_osm_id":"way/86100271","_district":"Приокский район"}},{"type":"Feature","geometry":{"type":"Point","coordinates":[44.13477162865528,56.10832345]},"properties":{"barrier":"wall","branch":"Нижегородский филиал","landuse":"industrial","name":"Новогорьковская ТЭЦ","name:en":"Novogorkovskaya Gas Power Plant","operator":"ПАО «Т Плюс»","plant:method":"combustion","plant:output:electricity":"557 MW","plant:output:heat":"538 MW","plant:source":"gas","power":"plant","source":"https://www.industryabout.com/country-territories-3/2137-russia/fossil-fuels-energy/32725-novogorkovskaya-gas-power-plant","start_date":"1956","_source":"real","_class":"heat_source","_osm_id":"way/95192476","_district":"вне районов"}}]}