{"type": "FeatureCollection", "features": [{"type": "Feature", "properties": {"id": 1, "object_type": "source"}, "geometry": {"type": "Point", "coordinates": [37.56586701, 55.757304737]}}, {"type": "Feature", "properties": {"id": 2, "object_type": "heat_network", "diameter": 300}, "geometry": {"type": "LineString", "coordinates": [[37.56586701, 55.757304737], [37.568367898, 55.757333898]]}}, {"type": "Feature", "properties": {"id": 4, "object_type": "heat_network", "diameter": 300}, "geometry": {"type": "LineString", "coordinates": [[37.568367898, 55.757333898], [37.570645781, 55.757360414]]}}, {"type": "Feature", "properties": {"id": 5, "object_type": "heat_chamber"}, "geometry": {"type": "Point", "coordinates": [37.568367898, 55.757333898]}}, {"type": "Feature", "properties": {"id": 3, "object_type": "heat_chamber"}, "geometry": {"type": "Point", "coordinates": [37.570645781, 55.757360414]}}, {"type": "Feature", "properties": {"id": 10, "object_type": "restriction", "restriction_type": "oks"}, "geometry": {"type": "Polygon", "coordinates": [[[37.568070768, 55.758049342], [37.568389358, 55.758053054], [37.568382776, 55.758232704], [37.568064184, 55.758228992], [37.568070768, 55.758049342]]]}}, {"type": "Feature", "properties": {"id": 11, "object_type": "oks_connection_point", "flow_tph": 10.0}, "geometry": {"type": "Point", "coordinates": [37.568228418, 55.758096111]}}]}