{"type": "FeatureCollection", "features": [{"type": "Feature", "properties": {"id": 1, "object_type": "source"}, "geometry": {"type": "Point", "coordinates": [37.56586701, 55.757304737]}}, {"type": "Feature", "properties": {"id": 2, "object_type": "heat_network", "diameter": 300}, "geometry": {"type": "LineString", "coordinates": [[37.56586701, 55.757304737], [37.570645781, 55.757360414]]}}, {"type": "Feature", "properties": {"id": 3, "object_type": "heat_chamber"}, "geometry": {"type": "Point", "coordinates": [37.570645781, 55.757360414]}}, {"type": "Feature", "properties": {"id": 10, "object_type": "restriction", "restriction_type": "oks"}, "geometry": {"type": "Polygon", "coordinates": [[[37.567988469, 55.760294965], [37.568307078, 55.760298677], [37.568300495, 55.760478327], [37.567981884, 55.760474615], [37.567988469, 55.760294965]]]}}, {"type": "Feature", "properties": {"id": 11, "object_type": "oks_connection_point", "flow_tph": 5.969}, "geometry": {"type": "Point", "coordinates": [37.568146127, 55.760341734]}}]}