{"type": "FeatureCollection", "features": [{"type": "Feature", "properties": {"id": 1, "object_type": "source"}, "geometry": {"type": "Point", "coordinates": [37.56586701, 55.757304737]}}, {"type": "Feature", "properties": {"id": 2, "object_type": "heat_network", "diameter": 300}, "geometry": {"type": "LineString", "coordinates": [[37.56586701, 55.757304737], [37.567459932, 55.757323317]]}}, {"type": "Feature", "properties": {"id": 3, "object_type": "heat_chamber"}, "geometry": {"type": "Point", "coordinates": [37.567459932, 55.757323317]}}, {"type": "Feature", "properties": {"id": 10, "object_type": "restriction", "restriction_type": "oks"}, "geometry": {"type": "Polygon", "coordinates": [[[37.569663721, 55.758067894], [37.569982312, 55.758071602], [37.569975738, 55.758251252], [37.569657145, 55.758247544], [37.569663721, 55.758067894]]]}}, {"type": "Feature", "properties": {"id": 11, "object_type": "oks_connection_point", "flow_tph": 10.0}, "geometry": {"type": "Point", "coordinates": [37.569821373, 55.75811466]}}, {"type": "Feature", "properties": {"id": 21, "object_type": "restriction", "restriction_type": "gas_pipeline"}, "geometry": {"type": "LineString", "coordinates": [[37.564283992, 55.757016662], [37.573795574, 55.758385506]]}}]}