{"type": "FeatureCollection", "features": [{"type": "Feature", "geometry": {"type": "Point", "coordinates": [37.613655463, 55.757853152]}, "properties": {"id": "src", "object_type": "source"}}, {"type": "Feature", "geometry": {"type": "LineString", "coordinates": [[37.613655463, 55.757853152], [37.62002738, 55.75792487]]}, "properties": {"id": "hn-1", "object_type": "heat_network", "diameter": 100, "flow_tph": 5.9, "upstream_object_id": "src"}}, {"type": "Feature", "geometry": {"type": "Point", "coordinates": [37.62002738, 55.75792487]}, "properties": {"id": "hc-1", "object_type": "heat_chamber", "diameter": 100, "upstream_object_id": "hn-1"}}, {"type": "Feature", "geometry": {"type": "LineString", "coordinates": [[37.62002738, 55.75792487], [37.626399326, 55.757996258]]}, "properties": {"id": "hn-2", "object_type": "heat_network", "diameter": 100, "flow_tph": 5.9, "upstream_object_id": "hc-1"}}, {"type": "Feature", "geometry": {"type": "Polygon", "coordinates": [[[37.616718574, 55.759043077], [37.616887948, 55.758890871], [37.617157878, 55.758986376], [37.616988504, 55.759138583], [37.616718574, 55.759043077]]]}, "properties": {"id": "oks-1", "object_type": "oks_future", "flow_tph": 5.9, "heat_load": 0.295}}, {"type": "Feature", "geometry": {"type": "Point", "coordinates": [37.616803261, 55.758966974]}, "properties": {"id": "oks-1-cp", "object_type": "oks_connection_point", "oks_id": "oks-1"}}, {"type": "Feature", "geometry": {"type": "Polygon", "coordinates": [[[37.61918519, 55.76077131], [37.619073547, 55.760806001], [37.614459771, 55.756084671], [37.614571405, 55.756049985], [37.61918519, 55.76077131]]]}, "properties": {"id": "road-1", "object_type": "restriction", "restriction_type": "road"}}]}