{"type": "FeatureCollection", "features": [{"type": "Feature", "properties": {"id": 1, "object_type": "source"}, "geometry": {"type": "Point", "coordinates": [37.56586701, 55.757304737]}}, {"type": "Feature", "properties": {"id": 2, "object_type": "heat_network", "diameter": 300}, "geometry": {"type": "LineString", "coordinates": [[37.56586701, 55.757304737], [37.570645781, 55.757360414]]}}, {"type": "Feature", "properties": {"id": 3, "object_type": "heat_chamber"}, "geometry": {"type": "Point", "coordinates": [37.570645781, 55.757360414]}}, {"type": "Feature", "properties": {"id": 10, "object_type": "restriction", "restriction_type": "oks"}, "geometry": {"type": "Polygon", "coordinates": [[[37.568070768, 55.758049342], [37.568389358, 55.758053054], [37.568382776, 55.758232704], [37.568064184, 55.758228992], [37.568070768, 55.758049342]]]}}, {"type": "Feature", "properties": {"id": 11, "object_type": "oks_connection_point", "flow_tph": 10.0}, "geometry": {"type": "Point", "coordinates": [37.568228418, 55.758096111]}}, {"type": "Feature", "properties": {"id": 20, "object_type": "restriction", "restriction_type": "road"}, "geometry": {"type": "Polygon", "coordinates": [[[37.56510105, 55.754209797], [37.571244713, 55.760507292], [37.571412238, 55.760455321], [37.565268557, 55.754157834], [37.56510105, 55.754209797]]]}}]}