{"type": "FeatureCollection", "features": [{"type": "Feature", "geometry": {"type": "Point", "coordinates": [37.613655463, 55.757853152]}, "properties": {"id": "src", "object_type": "source"}}, {"type": "Feature", "geometry": {"type": "LineString", "coordinates": [[37.613655463, 55.757853152], [37.62002738, 55.75792487]]}, "properties": {"id": "hn-1", "object_type": "heat_network", "diameter": 100, "flow_tph": 5.9, "upstream_object_id": "src"}}, {"type": "Feature", "geometry": {"type": "Point", "coordinates": [37.62002738, 55.75792487]}, "properties": {"id": "hc-1", "object_type": "heat_chamber", "diameter": 100, "upstream_object_id": "hn-1"}}, {"type": "Feature", "geometry": {"type": "LineString", "coordinates": [[37.62002738, 55.75792487], [37.626399326, 55.757996258]]}, "properties": {"id": "hn-2", "object_type": "heat_network", "diameter": 100, "flow_tph": 5.9, "upstream_object_id": "hc-1"}}, {"type": "Feature", "geometry": {"type": "Polygon", "coordinates": [[[37.616702942, 55.759219188], [37.616890861, 55.759074067], [37.617148226, 55.759180029], [37.616960308, 55.759325151], [37.616702942, 55.759219188]]]}, "properties": {"id": "oks-1", "object_type": "oks_future", "flow_tph": 5.9, "heat_load": 0.295}}, {"type": "Feature", "geometry": {"type": "Point", "coordinates": [37.616796901, 55.759146628]}, "properties": {"id": "oks-1-cp", "object_type": "oks_connection_point", "oks_id": "oks-1"}}, {"type": "Feature", "geometry": {"type": "Polygon", "coordinates": [[[37.617306597, 55.758253738], [37.617293883, 55.758613045], [37.616338078, 55.758602287], [37.616350801, 55.75824298], [37.617306597, 55.758253738]]]}, "properties": {"id": "obst-1", "object_type": "oks_existing"}}]}