{"type": "FeatureCollection", "features": [{"type": "Feature", "geometry": {"type": "Point", "coordinates": [37.613655463, 55.757853152]}, "properties": {"id": "src", "object_type": "source"}}, {"type": "Feature", "geometry": {"type": "LineString", "coordinates": [[37.613655463, 55.757853152], [37.618434398, 55.757906972]]}, "properties": {"id": "hn-1", "object_type": "heat_network", "diameter": 150, "flow_tph": 20.0, "upstream_object_id": "src"}}, {"type": "Feature", "geometry": {"type": "Point", "coordinates": [37.618434398, 55.757906972]}, "properties": {"id": "hc-1", "object_type": "heat_chamber", "diameter": 150, "upstream_object_id": "hn-1"}}, {"type": "Feature", "geometry": {"type": "LineString", "coordinates": [[37.618434398, 55.757906972], [37.627992318, 55.758014054]]}, "properties": {"id": "hn-2", "object_type": "heat_network", "diameter": 150, "flow_tph": 20.0, "upstream_object_id": "hc-1"}}, {"type": "Feature", "geometry": {"type": "Point", "coordinates": [37.627992318, 55.758014054]}, "properties": {"id": "hc-2", "object_type": "heat_chamber", "diameter": 150, "upstream_object_id": "hn-2"}}, {"type": "Feature", "geometry": {"type": "Polygon", "coordinates": [[[37.627820401, 55.758371584], [37.628139002, 55.758375141], [37.628132695, 55.758554796], [37.627814092, 55.758551239], [37.627820401, 55.758371584]]]}, "properties": {"id": "oks-n", "object_type": "oks_future", "flow_tph": 5, "heat_load": 0.25}}, {"type": "Feature", "geometry": {"type": "Point", "coordinates": [37.627979701, 55.758373363]}, "properties": {"id": "oks-n-cp", "object_type": "oks_connection_point", "oks_id": "oks-n"}}, {"type": "Feature", "geometry": {"type": "Polygon", "coordinates": [[[37.628164231, 55.757656523], [37.627845636, 55.757652966], [37.627851944, 55.757473312], [37.628170538, 55.757476869], [37.628164231, 55.757656523]]]}, "properties": {"id": "oks-s", "object_type": "oks_future", "flow_tph": 5, "heat_load": 0.25}}, {"type": "Feature", "geometry": {"type": "Point", "coordinates": [37.628004933, 55.757654745]}, "properties": {"id": "oks-s-cp", "object_type": "oks_connection_point", "oks_id": "oks-s"}}, {"type": "Feature", "geometry": {"type": "Polygon", "coordinates": [[[37.628626362, 55.758110994], [37.628632667, 55.757931339], [37.628951265, 55.757934894], [37.628944961, 55.758114548], [37.628626362, 55.758110994]]]}, "properties": {"id": "oks-e", "object_type": "oks_future", "flow_tph": 5, "heat_load": 0.25}}, {"type": "Feature", "geometry": {"type": "Point", "coordinates": [37.628629514, 55.758021166]}, "properties": {"id": "oks-e-cp", "object_type": "oks_connection_point", "oks_id": "oks-e"}}, {"type": "Feature", "geometry": {"type": "Polygon", "coordinates": [[[37.627342499, 55.758366247], [37.6276611, 55.758369805], [37.62765479, 55.75854946], [37.627336188, 55.758545901], [37.627342499, 55.758366247]]]}, "properties": {"id": "oks-nw", "object_type": "oks_future", "flow_tph": 5, "heat_load": 0.25}}, {"type": "Feature", "geometry": {"type": "Point", "coordinates": [37.627501799, 55.758368026]}, "properties": {"id": "oks-nw-cp", "object_type": "oks_connection_point", "oks_id": "oks-nw"}}]}