{"type": "FeatureCollection", "features": [{"type": "Feature", "properties": {"id": 1, "object_type": "source"}, "geometry": {"type": "Point", "coordinates": [37.56586701, 55.757304737]}}, {"type": "Feature", "properties": {"id": 2, "object_type": "heat_network", "diameter": 300}, "geometry": {"type": "LineString", "coordinates": [[37.56586701, 55.757304737], [37.570645781, 55.757360414]]}}, {"type": "Feature", "properties": {"id": 3, "object_type": "heat_chamber"}, "geometry": {"type": "Point", "coordinates": [37.570645781, 55.757360414]}}, {"type": "Feature", "properties": {"id": 10, "object_type": "restriction", "restriction_type": "oks"}, "geometry": {"type": "Polygon", "coordinates": [[[37.567758762, 55.75786598], [37.568332223, 55.757872662], [37.568315767, 55.758321787], [37.568092752, 55.758319188], [37.56810526, 55.757977854], [37.567977824, 55.757976369], [37.567965315, 55.758317703], [37.5677423, 55.758315104], [37.567758762, 55.75786598]]]}}, {"type": "Feature", "properties": {"id": 11, "object_type": "oks_connection_point", "flow_tph": 10.0}, "geometry": {"type": "Point", "coordinates": [37.56792411, 55.758137497]}}]}